{"type": "FeatureCollection", "features": [ {"type": "Feature", "properties": {"norad_id": 40534, "name": "GPS BIIF-9  (PRN 26)", "group": "gps-ops", "lat": -7.5258842275754825, "lon": 36.95253608941584, "alt_km": 20431.75819826285, "timestamp": "2025-12-27T19:21:59.010012+00:00", "meta": {"OBJECT_NAME": "GPS BIIF-9  (PRN 26)", "OBJECT_ID": "2015-013A", "EPOCH": "2025-12-26T13:11:10.214592", "MEAN_MOTION": 2.00561683, "ECCENTRICITY": 0.010755, "INCLINATION": 53.1959, "RA_OF_ASC_NODE": 211.3182, "ARG_OF_PERICENTER": 38.8079, "MEAN_ANOMALY": 322.028, "EPHEMERIS_TYPE": 0, "CLASSIFICATION_TYPE": "U", "NORAD_CAT_ID": 40534, "ELEMENT_SET_NO": 999, "REV_AT_EPOCH": 7836, "BSTAR": 0, "MEAN_MOTION_DOT": 8.8e-07, "MEAN_MOTION_DDOT": 0}, "tle": {"line1": "1 40534U 15013A   25360.54942378  .00000088  00000+0  00000+0 0  9998", "line2": "2 40534  53.1959 211.3182 0107550  38.8079 322.0280  2.00561683 78363"}}, "geometry": {"type": "Point", "coordinates": [36.95253608941584, -7.5258842275754825]}}, {"type": "Feature", "properties": {"norad_id": 40730, "name": "GPS BIIF-10 (PRN 08)", "group": "gps-ops", "lat": 50.840178289292865, "lon": -23.264908322284835, "alt_km": 19967.896313653375, "timestamp": "2025-12-27T19:21:59.010023+00:00", "meta": {"OBJECT_NAME": "GPS BIIF-10 (PRN 08)", "OBJECT_ID": "2015-033A", "EPOCH": "2025-12-26T05:05:23.462304", "MEAN_MOTION": 2.00564909, "ECCENTRICITY": 0.0111756, "INCLINATION": 54.1189, "RA_OF_ASC_NODE": 274.2184, "ARG_OF_PERICENTER": 27.1685, "MEAN_ANOMALY": 333.4602, "EPHEMERIS_TYPE": 0, "CLASSIFICATION_TYPE": "U", "NORAD_CAT_ID": 40730, "ELEMENT_SET_NO": 999, "REV_AT_EPOCH": 7652, "BSTAR": 0, "MEAN_MOTION_DOT": -2e-07, "MEAN_MOTION_DDOT": 0}, "tle": {"line1": "1 40730U 15033A   25360.21207711 -.00000020  00000+0  00000+0 0  9994", "line2": "2 40730  54.1189 274.2184 0111756  27.1685 333.4602  2.00564909 76528"}}, "geometry": {"type": "Point", "coordinates": [-23.264908322284835, 50.840178289292865]}}, {"type": "Feature", "properties": {"norad_id": 41019, "name": "GPS BIIF-11 (PRN 10)", "group": "gps-ops", "lat": 23.308490646715736, "lon": 53.7846171458221, "alt_km": 20452.51331134857, "timestamp": "2025-12-27T19:21:59.010033+00:00", "meta": {"OBJECT_NAME": "GPS BIIF-11 (PRN 10)", "OBJECT_ID": "2015-062A", "EPOCH": "2025-12-26T06:30:53.631648", "MEAN_MOTION": 2.00567029, "ECCENTRICITY": 0.0111129, "INCLINATION": 56.842, "RA_OF_ASC_NODE": 37.479, "ARG_OF_PERICENTER": 230.2895, "MEAN_ANOMALY": 128.7854, "EPHEMERIS_TYPE": 0, "CLASSIFICATION_TYPE": "U", "NORAD_CAT_ID": 41019, "ELEMENT_SET_NO": 999, "REV_AT_EPOCH": 7436, "BSTAR": 0, "MEAN_MOTION_DOT": -4.9e-07, "MEAN_MOTION_DDOT": 0}, "tle": {"line1": "1 41019U 15062A   25360.27145407 -.00000049  00000+0  00000+0 0  9997", "line2": "2 41019  56.8420  37.4790 0111129 230.2895 128.7854  2.00567029 74362"}}, "geometry": {"type": "Point", "coordinates": [53.7846171458221, 23.308490646715736]}}, {"type": "Feature", "properties": {"norad_id": 41328, "name": "GPS BIIF-12 (PRN 32)", "group": "gps-ops", "lat": -25.13881504342906, "lon": 77.39712099188131, "alt_km": 20162.33765725623, "timestamp": "2025-12-27T19:21:59.010043+00:00", "meta": {"OBJECT_NAME": "GPS BIIF-12 (PRN 32)", "OBJECT_ID": "2016-007A", "EPOCH": "2025-12-27T08:26:09.961152", "MEAN_MOTION": 2.00559889, "ECCENTRICITY": 0.0092886, "INCLINATION": 55.4141, "RA_OF_ASC_NODE": 96.277, "ARG_OF_PERICENTER": 243.9752, "MEAN_ANOMALY": 115.0799, "EPHEMERIS_TYPE": 0, "CLASSIFICATION_TYPE": "U", "NORAD_CAT_ID": 41328, "ELEMENT_SET_NO": 999, "REV_AT_EPOCH": 7239, "BSTAR": 0, "MEAN_MOTION_DOT": 2e-08, "MEAN_MOTION_DDOT": 0}, "tle": {"line1": "1 41328U 16007A   25361.35150418  .00000002  00000+0  00000+0 0  9996", "line2": "2 41328  55.4141  96.2770 0092886 243.9752 115.0799  2.00559889 72395"}}, "geometry": {"type": "Point", "coordinates": [77.39712099188131, -25.13881504342906]}}, {"type": "Feature", "properties": {"norad_id": 43873, "name": "GPS BIII-1  (PRN 04)", "group": "gps-ops", "lat": -33.799089178562845, "lon": -53.755318422697364, "alt_km": 20097.91159601118, "timestamp": "2025-12-27T19:21:59.010065+00:00", "meta": {"OBJECT_NAME": "GPS BIII-1  (PRN 04)", "OBJECT_ID": "2018-109A", "EPOCH": "2025-12-26T12:23:38.434848", "MEAN_MOTION": 2.00553927, "ECCENTRICITY": 0.0037609, "INCLINATION": 55.5742, "RA_OF_ASC_NODE": 99.0034, "ARG_OF_PERICENTER": 195.6344, "MEAN_ANOMALY": 174.7569, "EPHEMERIS_TYPE": 0, "CLASSIFICATION_TYPE": "U", "NORAD_CAT_ID": 43873, "ELEMENT_SET_NO": 999, "REV_AT_EPOCH": 5161, "BSTAR": 0, "MEAN_MOTION_DOT": 1.3e-07, "MEAN_MOTION_DDOT": 0}, "tle": {"line1": "1 43873U 18109A   25360.51641707  .00000013  00000+0  00000+0 0  9993", "line2": "2 43873  55.5742  99.0034 0037609 195.6344 174.7569  2.00553927 51612"}}, "geometry": {"type": "Point", "coordinates": [-53.755318422697364, -33.799089178562845]}}, {"type": "Feature", "properties": {"norad_id": 44506, "name": "GPS BIII-2  (PRN 18)", "group": "gps-ops", "lat": 46.18037393386421, "lon": 112.65470177251989, "alt_km": 20147.813932588306, "timestamp": "2025-12-27T19:21:59.010076+00:00", "meta": {"OBJECT_NAME": "GPS BIII-2  (PRN 18)", "OBJECT_ID": "2019-056A", "EPOCH": "2025-12-27T04:57:07.509024", "MEAN_MOTION": 2.00566436, "ECCENTRICITY": 0.0057783, "INCLINATION": 55.7159, "RA_OF_ASC_NODE": 337.979, "ARG_OF_PERICENTER": 198.6912, "MEAN_ANOMALY": 207.4139, "EPHEMERIS_TYPE": 0, "CLASSIFICATION_TYPE": "U", "NORAD_CAT_ID": 44506, "ELEMENT_SET_NO": 999, "REV_AT_EPOCH": 4662, "BSTAR": 0, "MEAN_MOTION_DOT": -6e-07, "MEAN_MOTION_DDOT": 0}, "tle": {"line1": "1 44506U 19056A   25361.20633691 -.00000060  00000+0  00000+0 0  9992", "line2": "2 44506  55.7159 337.9790 0057783 198.6912 207.4139  2.00566436 46623"}}, "geometry": {"type": "Point", "coordinates": [112.65470177251989, 46.18037393386421]}}, {"type": "Feature", "properties": {"norad_id": 45854, "name": "GPS BIII-3  (PRN 23)", "group": "gps-ops", "lat": 48.07245813592892, "lon": 82.96404422865875, "alt_km": 20301.334813434816, "timestamp": "2025-12-27T19:21:59.010087+00:00", "meta": {"OBJECT_NAME": "GPS BIII-3  (PRN 23)", "OBJECT_ID": "2020-041A", "EPOCH": "2025-12-26T05:40:05.983104", "MEAN_MOTION": 2.00561528, "ECCENTRICITY": 0.0060682, "INCLINATION": 56.556, "RA_OF_ASC_NODE": 35.6606, "ARG_OF_PERICENTER": 203.8008, "MEAN_ANOMALY": 165.623, "EPHEMERIS_TYPE": 0, "CLASSIFICATION_TYPE": "U", "NORAD_CAT_ID": 45854, "ELEMENT_SET_NO": 999, "REV_AT_EPOCH": 4057, "BSTAR": 0, "MEAN_MOTION_DOT": -5e-07, "MEAN_MOTION_DDOT": 0}, "tle": {"line1": "1 45854U 20041A   25360.23618036 -.00000050  00000+0  00000+0 0  9992", "line2": "2 45854  56.5560  35.6606 0060682 203.8008 165.6230  2.00561528 40572"}}, "geometry": {"type": "Point", "coordinates": [82.96404422865875, 48.07245813592892]}}, {"type": "Feature", "properties": {"norad_id": 46826, "name": "GPS BIII-4  (PRN 14)", "group": "gps-ops", "lat": 27.46531583534152, "lon": -120.07083622613528, "alt_km": 20347.71301815502, "timestamp": "2025-12-27T19:21:59.010098+00:00", "meta": {"OBJECT_NAME": "GPS BIII-4  (PRN 14)", "OBJECT_ID": "2020-078A", "EPOCH": "2025-12-16T01:06:13.902336", "MEAN_MOTION": 2.00566891, "ECCENTRICITY": 0.0064754, "INCLINATION": 54.0144, "RA_OF_ASC_NODE": 218.2068, "ARG_OF_PERICENTER": 203.3802, "MEAN_ANOMALY": 339.3962, "EPHEMERIS_TYPE": 0, "CLASSIFICATION_TYPE": "U", "NORAD_CAT_ID": 46826, "ELEMENT_SET_NO": 999, "REV_AT_EPOCH": 3783, "BSTAR": 0, "MEAN_MOTION_DOT": 6.7e-07, "MEAN_MOTION_DDOT": 0}, "tle": {"line1": "1 46826U 20078A   25350.04599424  .00000067  00000+0  00000+0 0  9996", "line2": "2 46826  54.0144 218.2068 0064754 203.3802 339.3962  2.00566891 37830"}}, "geometry": {"type": "Point", "coordinates": [-120.07083622613528, 27.46531583534152]}}, {"type": "Feature", "properties": {"norad_id": 48859, "name": "GPS BIII-5  (PRN 11)", "group": "gps-ops", "lat": -31.47011855113206, "lon": -175.52758014455353, "alt_km": 20123.612328015122, "timestamp": "2025-12-27T19:21:59.010109+00:00", "meta": {"OBJECT_NAME": "GPS BIII-5  (PRN 11)", "OBJECT_ID": "2021-054A", "EPOCH": "2025-12-08T04:14:32.423424", "MEAN_MOTION": 2.00553627, "ECCENTRICITY": 0.0024678, "INCLINATION": 55.2581, "RA_OF_ASC_NODE": 340.1367, "ARG_OF_PERICENTER": 233.3993, "MEAN_ANOMALY": 212.8594, "EPHEMERIS_TYPE": 0, "CLASSIFICATION_TYPE": "U", "NORAD_CAT_ID": 48859, "ELEMENT_SET_NO": 999, "REV_AT_EPOCH": 3292, "BSTAR": 0, "MEAN_MOTION_DOT": -8.6e-07, "MEAN_MOTION_DDOT": 0}, "tle": {"line1": "1 48859U 21054A   25342.17676416 -.00000086  00000+0  00000+0 0  9993", "line2": "2 48859  55.2581 340.1367 0024678 233.3993 212.8594  2.00553627 32922"}}, "geometry": {"type": "Point", "coordinates": [-175.52758014455353, -31.47011855113206]}}, {"type": "Feature", "properties": {"norad_id": 55268, "name": "GPS BIII-6  (PRN 28)", "group": "gps-ops", "lat": -54.30590169635216, "lon": 51.50270743894524, "alt_km": 20189.45413175737, "timestamp": "2025-12-27T19:21:59.010119+00:00", "meta": {"OBJECT_NAME": "GPS BIII-6  (PRN 28)", "OBJECT_ID": "2023-009A", "EPOCH": "2025-12-22T10:59:58.065216", "MEAN_MOTION": 2.00554901, "ECCENTRICITY": 0.00037047, "INCLINATION": 55.1065, "RA_OF_ASC_NODE": 155.4638, "ARG_OF_PERICENTER": 355.7912, "MEAN_ANOMALY": 4.4255, "EPHEMERIS_TYPE": 0, "CLASSIFICATION_TYPE": "U", "NORAD_CAT_ID": 55268, "ELEMENT_SET_NO": 999, "REV_AT_EPOCH": 2170, "BSTAR": 0, "MEAN_MOTION_DOT": 7.4e-07, "MEAN_MOTION_DDOT": 0}, "tle": {"line1": "1 55268U 23009A   25356.45831094  .00000074  00000+0  00000+0 0  9994", "line2": "2 55268  55.1065 155.4638 0003704 355.7912   4.4255  2.00554901 21704"}}, "geometry": {"type": "Point", "coordinates": [51.50270743894524, -54.30590169635216]}}]}